TEVEL2-2                
1 63219U 25052K   26068.64848259  .00020339  00000+0  69428-3 0  9991
2 63219  97.3987 324.7700 0004693 105.7930 254.3828 15.30343745 54855
STARLINK-34130          
1 64736U 25144N   26068.63366960  .00034804  00000+0  11817-2 0  9991
2 64736  53.1599 181.2756 0000866  65.2672 294.8419 15.30200611 39703
